<?xml version="1.0" encoding="UTF-8"?>
<ndm xmlns:xsi="http://www.w3.org/2001/XMLSchema-instance" xsi:noNamespaceSchemaLocation="https://sanaregistry.org/r/ndmxml_unqualified/ndmxml-2.0.0-master-2.0.xsd">
<omm id="CCSDS_OMM_VERS" version="2.0">
<header><CREATION_DATE/><ORIGINATOR/></header><body><segment><metadata><OBJECT_NAME>KUIPER-00089</OBJECT_NAME><OBJECT_ID>2025-151U</OBJECT_ID><CENTER_NAME>EARTH</CENTER_NAME><REF_FRAME>TEME</REF_FRAME><TIME_SYSTEM>UTC</TIME_SYSTEM><MEAN_ELEMENT_THEORY>SGP4</MEAN_ELEMENT_THEORY></metadata><data><meanElements><EPOCH>2025-08-11T13:32:01.530240</EPOCH><MEAN_MOTION>15.35587423</MEAN_MOTION><ECCENTRICITY>.0005439</ECCENTRICITY><INCLINATION>51.8799</INCLINATION><RA_OF_ASC_NODE>160.8676</RA_OF_ASC_NODE><ARG_OF_PERICENTER>248.8707</ARG_OF_PERICENTER><MEAN_ANOMALY>111.1698</MEAN_ANOMALY></meanElements><tleParameters><EPHEMERIS_TYPE>0</EPHEMERIS_TYPE><CLASSIFICATION_TYPE>U</CLASSIFICATION_TYPE><NORAD_CAT_ID>64834</NORAD_CAT_ID><ELEMENT_SET_NO>999</ELEMENT_SET_NO><REV_AT_EPOCH>403</REV_AT_EPOCH><BSTAR>.44798E-3</BSTAR><MEAN_MOTION_DOT>.15389E-3</MEAN_MOTION_DOT><MEAN_MOTION_DDOT>0</MEAN_MOTION_DDOT></tleParameters></data></segment></body></omm>
<omm id="CCSDS_OMM_VERS" version="2.0">
<header><CREATION_DATE/><ORIGINATOR/></header><body><segment><metadata><OBJECT_NAME>KUIPER-00090</OBJECT_NAME><OBJECT_ID>2025-151V</OBJECT_ID><CENTER_NAME>EARTH</CENTER_NAME><REF_FRAME>TEME</REF_FRAME><TIME_SYSTEM>UTC</TIME_SYSTEM><MEAN_ELEMENT_THEORY>SGP4</MEAN_ELEMENT_THEORY></metadata><data><meanElements><EPOCH>2025-08-12T02:07:17.877504</EPOCH><MEAN_MOTION>15.35356344</MEAN_MOTION><ECCENTRICITY>.0005485</ECCENTRICITY><INCLINATION>51.8794</INCLINATION><RA_OF_ASC_NODE>158.3790</RA_OF_ASC_NODE><ARG_OF_PERICENTER>255.8604</ARG_OF_PERICENTER><MEAN_ANOMALY>104.1773</MEAN_ANOMALY></meanElements><tleParameters><EPHEMERIS_TYPE>0</EPHEMERIS_TYPE><CLASSIFICATION_TYPE>U</CLASSIFICATION_TYPE><NORAD_CAT_ID>64835</NORAD_CAT_ID><ELEMENT_SET_NO>999</ELEMENT_SET_NO><REV_AT_EPOCH>410</REV_AT_EPOCH><BSTAR>.49724E-3</BSTAR><MEAN_MOTION_DOT>.16999E-3</MEAN_MOTION_DOT><MEAN_MOTION_DDOT>0</MEAN_MOTION_DDOT></tleParameters></data></segment></body></omm>
<omm id="CCSDS_OMM_VERS" version="2.0">
<header><CREATION_DATE/><ORIGINATOR/></header><body><segment><metadata><OBJECT_NAME>KUIPER-00091</OBJECT_NAME><OBJECT_ID>2025-151W</OBJECT_ID><CENTER_NAME>EARTH</CENTER_NAME><REF_FRAME>TEME</REF_FRAME><TIME_SYSTEM>UTC</TIME_SYSTEM><MEAN_ELEMENT_THEORY>SGP4</MEAN_ELEMENT_THEORY></metadata><data><meanElements><EPOCH>2025-08-12T08:05:26.196864</EPOCH><MEAN_MOTION>15.36007567</MEAN_MOTION><ECCENTRICITY>.0005427</ECCENTRICITY><INCLINATION>51.8760</INCLINATION><RA_OF_ASC_NODE>157.0431</RA_OF_ASC_NODE><ARG_OF_PERICENTER>225.1718</ARG_OF_PERICENTER><MEAN_ANOMALY>134.8828</MEAN_ANOMALY></meanElements><tleParameters><EPHEMERIS_TYPE>0</EPHEMERIS_TYPE><CLASSIFICATION_TYPE>U</CLASSIFICATION_TYPE><NORAD_CAT_ID>64836</NORAD_CAT_ID><ELEMENT_SET_NO>999</ELEMENT_SET_NO><REV_AT_EPOCH>415</REV_AT_EPOCH><BSTAR>.78417E-3</BSTAR><MEAN_MOTION_DOT>.27645E-3</MEAN_MOTION_DOT><MEAN_MOTION_DDOT>0</MEAN_MOTION_DDOT></tleParameters></data></segment></body></omm>
<omm id="CCSDS_OMM_VERS" version="2.0">
<header><CREATION_DATE/><ORIGINATOR/></header><body><segment><metadata><OBJECT_NAME>KUIPER-00092</OBJECT_NAME><OBJECT_ID>2025-151X</OBJECT_ID><CENTER_NAME>EARTH</CENTER_NAME><REF_FRAME>TEME</REF_FRAME><TIME_SYSTEM>UTC</TIME_SYSTEM><MEAN_ELEMENT_THEORY>SGP4</MEAN_ELEMENT_THEORY></metadata><data><meanElements><EPOCH>2025-08-12T05:02:28.853088</EPOCH><MEAN_MOTION>15.35936258</MEAN_MOTION><ECCENTRICITY>.0005345</ECCENTRICITY><INCLINATION>51.8828</INCLINATION><RA_OF_ASC_NODE>157.6920</RA_OF_ASC_NODE><ARG_OF_PERICENTER>238.8922</ARG_OF_PERICENTER><MEAN_ANOMALY>121.1540</MEAN_ANOMALY></meanElements><tleParameters><EPHEMERIS_TYPE>0</EPHEMERIS_TYPE><CLASSIFICATION_TYPE>U</CLASSIFICATION_TYPE><NORAD_CAT_ID>64837</NORAD_CAT_ID><ELEMENT_SET_NO>999</ELEMENT_SET_NO><REV_AT_EPOCH>534</REV_AT_EPOCH><BSTAR>.80961E-3</BSTAR><MEAN_MOTION_DOT>.28491E-3</MEAN_MOTION_DOT><MEAN_MOTION_DDOT>0</MEAN_MOTION_DDOT></tleParameters></data></segment></body></omm>
<omm id="CCSDS_OMM_VERS" version="2.0">
<header><CREATION_DATE/><ORIGINATOR/></header><body><segment><metadata><OBJECT_NAME>KUIPER-00093</OBJECT_NAME><OBJECT_ID>2025-151Y</OBJECT_ID><CENTER_NAME>EARTH</CENTER_NAME><REF_FRAME>TEME</REF_FRAME><TIME_SYSTEM>UTC</TIME_SYSTEM><MEAN_ELEMENT_THEORY>SGP4</MEAN_ELEMENT_THEORY></metadata><data><meanElements><EPOCH>2025-08-12T09:49:14.576736</EPOCH><MEAN_MOTION>15.35699532</MEAN_MOTION><ECCENTRICITY>.0004866</ECCENTRICITY><INCLINATION>51.8785</INCLINATION><RA_OF_ASC_NODE>156.7839</RA_OF_ASC_NODE><ARG_OF_PERICENTER>248.1664</ARG_OF_PERICENTER><MEAN_ANOMALY>111.8805</MEAN_ANOMALY></meanElements><tleParameters><EPHEMERIS_TYPE>0</EPHEMERIS_TYPE><CLASSIFICATION_TYPE>U</CLASSIFICATION_TYPE><NORAD_CAT_ID>64838</NORAD_CAT_ID><ELEMENT_SET_NO>999</ELEMENT_SET_NO><REV_AT_EPOCH>416</REV_AT_EPOCH><BSTAR>.8893E-3</BSTAR><MEAN_MOTION_DOT>.31104E-3</MEAN_MOTION_DOT><MEAN_MOTION_DDOT>0</MEAN_MOTION_DDOT></tleParameters></data></segment></body></omm>
<omm id="CCSDS_OMM_VERS" version="2.0">
<header><CREATION_DATE/><ORIGINATOR/></header><body><segment><metadata><OBJECT_NAME>KUIPER-00094</OBJECT_NAME><OBJECT_ID>2025-151Z</OBJECT_ID><CENTER_NAME>EARTH</CENTER_NAME><REF_FRAME>TEME</REF_FRAME><TIME_SYSTEM>UTC</TIME_SYSTEM><MEAN_ELEMENT_THEORY>SGP4</MEAN_ELEMENT_THEORY></metadata><data><meanElements><EPOCH>2025-08-12T09:42:53.527680</EPOCH><MEAN_MOTION>15.35927162</MEAN_MOTION><ECCENTRICITY>.0004821</ECCENTRICITY><INCLINATION>51.8776</INCLINATION><RA_OF_ASC_NODE>156.7455</RA_OF_ASC_NODE><ARG_OF_PERICENTER>237.9606</ARG_OF_PERICENTER><MEAN_ANOMALY>122.0912</MEAN_ANOMALY></meanElements><tleParameters><EPHEMERIS_TYPE>0</EPHEMERIS_TYPE><CLASSIFICATION_TYPE>U</CLASSIFICATION_TYPE><NORAD_CAT_ID>64839</NORAD_CAT_ID><ELEMENT_SET_NO>999</ELEMENT_SET_NO><REV_AT_EPOCH>439</REV_AT_EPOCH><BSTAR>.10544E-2</BSTAR><MEAN_MOTION_DOT>.37252E-3</MEAN_MOTION_DOT><MEAN_MOTION_DDOT>0</MEAN_MOTION_DDOT></tleParameters></data></segment></body></omm>
</ndm>
