KUIPER-00089            
1 64834U 25151U   25223.56390660  .00015389  00000+0  44798-3 0  9998
2 64834  51.8799 160.8676 0005439 248.8707 111.1698 15.35587423  4034
KUIPER-00090            
1 64835U 25151V   25224.08840136  .00016999  00000+0  49724-3 0  9997
2 64835  51.8794 158.3790 0005485 255.8604 104.1773 15.35356344  4104
KUIPER-00091            
1 64836U 25151W   25224.33710876  .00027645  00000+0  78417-3 0  9994
2 64836  51.8760 157.0431 0005427 225.1718 134.8828 15.36007567  4155
KUIPER-00092            
1 64837U 25151X   25224.21005617  .00028491  00000+0  80961-3 0  9999
2 64837  51.8828 157.6920 0005345 238.8922 121.1540 15.35936258  5346
KUIPER-00093            
1 64838U 25151Y   25224.40919649  .00031104  00000+0  88930-3 0  9999
2 64838  51.8785 156.7839 0004866 248.1664 111.8805 15.35699532  4162
KUIPER-00094            
1 64839U 25151Z   25224.40478620  .00037252  00000+0  10544-2 0  9994
2 64839  51.8776 156.7455 0004821 237.9606 122.0912 15.35927162  4391
